PROBA-1                 
1 26958U 01049B   26162.69373252  .00002481  00000+0  16245-3 0  9993
2 26958  97.9606 171.0337 0055782 140.2848 220.2484 15.07474574342796
CUTE-1 (CO-55)          
1 27844U 03031E   26162.55782411  .00000255  00000+0  12921-3 0  9991
2 27844  98.6735 171.1873 0009139 194.6488 165.4428 14.24332340190876
CUBESAT XI-IV (CO-57)   
1 27848U 03031J   26162.54345883  .00000221  00000+0  11637-3 0  9998
2 27848  98.6768 170.8906 0008681 214.5229 145.5386 14.23617902190573
APRIZESAT 4             
1 35684U 09041D   26162.66021311  .00000587  00000+0  76694-4 0  9992
2 35684  98.1412 237.8705 0042781 341.2678  18.6959 14.83872135910547
APRIZESAT 3             
1 35686U 09041F   26162.68206601  .00001262  00000+0  11338-3 0  9997
2 35686  98.2053 315.6426 0062751  85.4433 275.3951 14.96224476915554
PROBA-2                 
1 36037U 09059B   26162.46332346  .00000154  00000+0  46367-4 0  9999
2 36037  98.2450 345.8955 0012124 301.6481  58.3533 14.54859902880696
APRIZESAT 5             
1 37792U 11044E   26162.60251068  .00001016  00000+0  13545-3 0  9991
2 37792  98.2455  95.4847 0052784  22.1427 338.2047 14.81063927797960
APRIZESAT 6             
1 37793U 11044F   26162.65970132  .00000634  00000+0  96572-4 0  9994
2 37793  98.2370  73.0464 0044441 103.1838 321.3276 14.76907723796333
PROBA-V                 
1 39159U 13021A   26162.49637247  .00000065  00000+0  46357-4 0  9992
2 39159  98.3582 141.3840 0004918 136.9652 223.1913 14.23595841680309
APRIZESAT 7             
1 39416U 13066A   26162.65293764  .00000765  00000+0  81280-4 0  9998
2 39416  97.7707 115.9525 0034594 228.0546 131.7722 14.91552443680401
APRIZESAT 8             
1 39425U 13066K   26162.08792428  .00000874  00000+0  10067-3 0  9991
2 39425  97.8220 109.6410 0044691 307.2502  52.4642 14.87640786678765
BUGSAT-1 (TITA)         
1 40014U 14033E   26162.68829523  .00005013  00000+0  26606-3 0  9991
2 40014  98.0422 254.9158 0027602 197.0857 162.9447 15.15524828655004
SAUDISAT 4              
1 40016U 14033G   26162.37032581  .00000584  00000+0  83536-4 0  9993
2 40016  97.7575 308.7066 0046243  92.3247 268.3261 14.79536639645218
APRIZESAT 9             
1 40018U 14033J   26162.64189690  .00000578  00000+0  92365-4 0  9992
2 40018  97.9053 295.9762 0065307 217.1673 142.5005 14.74207063642740
APRIZESAT 10            
1 40019U 14033K   26162.34432353  .00000338  00000+0  61137-4 0  9994
2 40019  97.9642 289.4343 0077517 292.8263  66.4770 14.70877300641395
TECHDEMOSAT-1 (TDS-1)   
1 40076U 14037H   26162.53799914  .00007275  00000+0  41385-3 0  9990
2 40076  98.3806 154.1908 0004654 292.1078  67.9656 15.13208718647371
TECHNOSAT               
1 42829U 17042E   26162.39817513  .00003079  00000+0  22080-3 0  9996
2 42829  97.4263 320.2771 0018777 112.5016 247.8201 15.04918472485839
FLYING LAPTOP           
1 42831U 17042G   26162.71953253  .00002965  00000+0  23520-3 0  9990
2 42831  97.4661 318.4641 0019311 139.4783 220.7883 15.01110312485631
HAWK-A                  
1 43765U 18099H   26162.63809431  .00005882  00000+0  23799-3 0  9998
2 43765  97.3922 214.9462 0033305 306.4416  53.3753 15.24577566412253
HAWK-B                  
1 43794U 18099AN  26162.65302977  .00005210  00000+0  22330-3 0  9990
2 43794  97.3970 214.3875 0030861 325.2612  34.6609 15.22765056412197
HAWK-C                  
1 43799U 18099AT  26162.69265791  .00007162  00000+0  25896-3 0  9999
2 43799  97.3897 215.8853 0038937 306.0553  53.7081 15.28026567413072
SALSAT                  
1 46495U 20068K   26162.58556220  .00006923  00000+0  24314-3 0  9990
2 46495  97.8849 165.3093 0008526 331.4069  28.6701 15.29719030314503
HAWK-2C                 
1 47502U 21006CT  26162.67508385  .00005997  00000+0  18116-3 0  9995
2 47502  97.2284 207.0949 0006042 205.9188 154.1754 15.34596780298653
HAWK-2A                 
1 47505U 21006CW  26162.67763035  .00006006  00000+0  18136-3 0  9997
2 47505  97.2327 207.7720 0005475 209.3865 150.7071 15.34611747298652
HAWK-2B                 
1 47508U 21006CZ  26162.67346684  .00006753  00000+0  20307-3 0  9999
2 47508  97.2196 206.1085 0006036 207.6038 152.4886 15.34691149298650
HAWK-3B                 
1 48931U 21059BE  26162.52180965  .00043874  00000+0  37921-3 0  9995
2 48931  97.6668 358.6970 0003629 358.9023   1.2230 15.69091856276965
HAWK-3C                 
1 48948U 21059BX  26162.52149468  .00042957  00000+0  37138-3 0  9997
2 48948  97.6789   4.3728 0003964 359.6641   0.4616 15.69087859276966
HAWK-3A                 
1 48957U 21059CG  26162.52139128  .00044565  00000+0  38507-3 0  9997
2 48957  97.6731   1.5819 0004076   1.3563 358.7708 15.69093450276967
HAWK-5C                 
1 52754U 22057Y   26162.43223811  .00016456  00000+0  28297-3 0  9992
2 52754  97.6585 321.7300 0005305  99.9710 260.2140 15.51188382225454
HAWK-5B                 
1 52756U 22057AA  26162.43208985  .00016383  00000+0  28169-3 0  9996
2 52756  97.6591 320.0784 0005962  93.0818 267.1115 15.51188759225450
HAWK-5A                 
1 52757U 22057AB  26162.43187199  .00016429  00000+0  28251-3 0  9993
2 52757  97.6591 320.9098 0005885  96.1770 264.0152 15.51184795225456
